[{"OBJECT_NAME":"YAOGAN-31 04A","OBJECT_ID":"2021-020A","EPOCH":"2026-03-09T22:27:31.467168","MEAN_MOTION":13.45439854,"ECCENTRICITY":0.01663129,"INCLINATION":63.4059,"RA_OF_ASC_NODE":153.0369,"ARG_OF_PERICENTER":0.1157,"MEAN_ANOMALY":359.988,"EPHEMERIS_TYPE":0,"CLASSIFICATION_TYPE":"U","NORAD_CAT_ID":47854,"ELEMENT_SET_NO":999,"REV_AT_EPOCH":24511,"BSTAR":0.00010113421,"MEAN_MOTION_DOT":-2.5e-7,"MEAN_MOTION_DDOT":0},{"OBJECT_NAME":"SL-16 DEB","OBJECT_ID":"1993-016D","EPOCH":"2026-03-09T20:03:06.041376","MEAN_MOTION":13.73561807,"ECCENTRICITY":0.02003273,"INCLINATION":70.995,"RA_OF_ASC_NODE":107.6978,"ARG_OF_PERICENTER":339.5155,"MEAN_ANOMALY":197.713,"EPHEMERIS_TYPE":0,"CLASSIFICATION_TYPE":"U","NORAD_CAT_ID":22576,"ELEMENT_SET_NO":999,"REV_AT_EPOCH":65100,"BSTAR":0.00010010481,"MEAN_MOTION_DOT":6.4e-7,"MEAN_MOTION_DDOT":0}]
